{
  "schema_version": 1,
  "seed": "123456789",
  "age_s": 7.1051001508061784e+16,
  "stars": [
    {
      "mass_kg": 2.2399316557768857e+30,
      "radius_m": 744464428.3033822,
      "luminosity_w": 6.158029133898099e+26,
      "temperature_k": 6283.951160239945,
      "main_sequence_lifetime_s": 2.344732824120492e+17,
      "orbit": null
    },
    {
      "mass_kg": 1.909950317362499e+30,
      "radius_m": 673512728.3924899,
      "luminosity_w": 3.2552994933649986e+26,
      "temperature_k": 5633.381661140236,
      "main_sequence_lifetime_s": 3.492409059207977e+17,
      "orbit": {
        "semi_major_axis_m": 57263714836484.91,
        "eccentricity": 0.16669957582757877,
        "inclination_rad": 0.03840172733837074,
        "raan_rad": 2.81815463722151,
        "arg_periapsis_rad": 1.894581457974511,
        "mean_anomaly_epoch_rad": 3.859100375187903
      }
    }
  ],
  "planet_host": "Primary",
  "planets": [
    {
      "class": "GasGiant",
      "mass_kg": 4.9092033644420096e+27,
      "radius_m": 67661656.66141255,
      "orbit": {
        "semi_major_axis_m": 3393368885024.371,
        "eccentricity": 0.03374165898449406,
        "inclination_rad": 0.029935717071106174,
        "raan_rad": 2.331508305564176,
        "arg_periapsis_rad": 2.5433476259431456,
        "mean_anomaly_epoch_rad": 2.2166784822142134
      },
      "secular": {
        "apsidal_rad_per_s": 2.8797688384507764e-18,
        "nodal_rad_per_s": 0.0,
        "migration_m_per_s": 0.0
      },
      "axial_tilt_rad": 0.3082880420021075,
      "axial_precession_rad_per_s": 1.4157471086615114e-12,
      "rotation_period_s": 45120.66584906434,
      "spin_drift_s_per_s": 1.6687085733679741e-15,
      "state": {
        "kind": "Living"
      },
      "moons": [
        {
          "mass_kg": 1.1517149150497671e+23,
          "radius_m": 2092722.8149480144,
          "orbit": {
            "semi_major_axis_m": 987244514.7993342,
            "eccentricity": 0.04932786115840079,
            "inclination_rad": 0.06227733967899721,
            "raan_rad": 1.2415024490679072,
            "arg_periapsis_rad": 5.5397102716651,
            "mean_anomaly_epoch_rad": 3.4896321430449615
          },
          "secular": {
            "apsidal_rad_per_s": 3.2592209750834493e-13,
            "nodal_rad_per_s": -1.5520099881349757e-13,
            "migration_m_per_s": 4.950490533276556e-8
          },
          "tidally_locked": true,
          "rotation_period_s": 340493.3145266292,
          "doom_time_s": null
        },
        {
          "mass_kg": 7.18745626349831e+23,
          "radius_m": 3852906.3258637716,
          "orbit": {
            "semi_major_axis_m": 2535762921.619429,
            "eccentricity": 0.06297013875515954,
            "inclination_rad": 0.007318573433191081,
            "raan_rad": 0.7125358132113286,
            "arg_periapsis_rad": 0.9592750889496329,
            "mean_anomaly_epoch_rad": 3.9036784472193466
          },
          "secular": {
            "apsidal_rad_per_s": 1.3442213713401197e-12,
            "nodal_rad_per_s": -6.401054149238665e-13,
            "migration_m_per_s": 1.7243162080135081e-9
          },
          "tidally_locked": true,
          "rotation_period_s": 1401633.489945747,
          "doom_time_s": null
        },
        {
          "mass_kg": 6.906484231833008e+23,
          "radius_m": 3802031.5831988086,
          "orbit": {
            "semi_major_axis_m": 4190420602.920182,
            "eccentricity": 0.03794842183298168,
            "inclination_rad": 0.05174575521951447,
            "raan_rad": 5.842235921232924,
            "arg_periapsis_rad": 0.3189991176453453,
            "mean_anomaly_epoch_rad": 5.088673438522378
          },
          "secular": {
            "apsidal_rad_per_s": 2.8518336047264325e-12,
            "nodal_rad_per_s": -1.3580160022506821e-12,
            "migration_m_per_s": 1.0458740554262386e-10
          },
          "tidally_locked": true,
          "rotation_period_s": 2977542.159830609,
          "doom_time_s": null
        },
        {
          "mass_kg": 8.272132216988967e+22,
          "radius_m": 1874142.1769608762,
          "orbit": {
            "semi_major_axis_m": 10176419432.725077,
            "eccentricity": 0.026835992780111388,
            "inclination_rad": 0.06463983697593718,
            "raan_rad": 0.2653199572939354,
            "arg_periapsis_rad": 0.9174399652150117,
            "mean_anomaly_epoch_rad": 2.464371865297543
          },
          "secular": {
            "apsidal_rad_per_s": 1.0784599286389594e-11,
            "nodal_rad_per_s": -5.1355234697093305e-12,
            "migration_m_per_s": 9.51665291094473e-14
          },
          "tidally_locked": false,
          "rotation_period_s": 106859.646279371,
          "doom_time_s": null
        },
        {
          "mass_kg": 6.607337026451791e+22,
          "radius_m": 1738890.3549661657,
          "orbit": {
            "semi_major_axis_m": 18885569895.76843,
            "eccentricity": 0.07338500778847125,
            "inclination_rad": 0.04934967431332728,
            "raan_rad": 5.579766313289981,
            "arg_periapsis_rad": 4.252736198814829,
            "mean_anomaly_epoch_rad": 3.1993606266429455
          },
          "secular": {
            "apsidal_rad_per_s": 2.7288869524997615e-11,
            "nodal_rad_per_s": -1.2994699773808388e-11,
            "migration_m_per_s": 2.534837911727419e-15
          },
          "tidally_locked": false,
          "rotation_period_s": 52466.58573227947,
          "doom_time_s": null
        },
        {
          "mass_kg": 8.310110072321517e+22,
          "radius_m": 1877005.8986431912,
          "orbit": {
            "semi_major_axis_m": 36359704055.62127,
            "eccentricity": 0.0644679302910991,
            "inclination_rad": 0.07123843329454214,
            "raan_rad": 2.054362036280506,
            "arg_periapsis_rad": 0.6763171965632436,
            "mean_anomaly_epoch_rad": 3.1217533665322743
          },
          "secular": {
            "apsidal_rad_per_s": 7.28026232680351e-11,
            "nodal_rad_per_s": -3.4667915841921475e-11,
            "migration_m_per_s": 8.686286771893546e-17
          },
          "tidally_locked": false,
          "rotation_period_s": 91635.41384319594,
          "doom_time_s": null
        }
      ],
      "calendar": null
    }
  ],
  "anchor_planet": 4
}
